OBJECT_NAME,OBJECT_ID,EPOCH,MEAN_MOTION,ECCENTRICITY,INCLINATION,RA_OF_ASC_NODE,ARG_OF_PERICENTER,MEAN_ANOMALY,EPHEMERIS_TYPE,CLASSIFICATION_TYPE,NORAD_CAT_ID,ELEMENT_SET_NO,REV_AT_EPOCH,BSTAR,MEAN_MOTION_DOT,MEAN_MOTION_DDOT
STARLINK-32614,2024-249V,2026-06-23T04:02:52.890144,15.27594368,.00014438,43.0002,86.3081,277.1981,82.8707,0,U,62428,999,8385,.6016247E-3,.16337E-3,0
STARLINK-32418,2024-249W,2026-06-24T09:30:50.172192,15.27570004,.00040523,42.9984,71.3908,280.6464,79.3932,0,U,62429,999,8413,.85006692E-3,.232E-3,0
RESURS-P 5,2024-250A,2026-06-25T06:25:12.731808,15.32126876,.00022069,97.2785,101.4626,123.9277,236.2175,0,U,62430,999,8378,.97586707E-4,.295E-4,0
STARLINK-32702,2024-251A,2026-06-25T05:31:19.261920,15.30209918,.00007855,53.1565,192.9289,77.1075,283.0013,0,U,62432,999,8445,.61964546E-3,.18043E-3,0
STARLINK-32712,2024-251B,2026-06-25T05:50:28.947840,15.30193541,.00011675,53.1595,195.8481,94.2087,265.9047,0,U,62433,999,8441,.63048274E-3,.18356E-3,0
STARLINK-32674,2024-251C,2026-06-25T06:00:02.000160,15.34394531,.00011293,53.1599,195.2751,91.7998,224.1320,0,U,62434,999,579,-.28651511E-3,-.10042E-3,0
STARLINK-32711,2024-251D,2026-06-25T05:45:55.251648,15.30191378,.00013396,53.1581,195.8293,94.2614,265.8540,0,U,62435,999,8441,.74173818E-3,.21667E-3,0
STARLINK-32697,2024-251E,2026-06-25T07:01:44.069952,15.30188516,.00010035,53.1563,195.4509,95.4213,264.6902,0,U,62436,999,8442,.91404749E-3,.268E-3,0
STARLINK-32693,2024-251F,2026-06-25T06:01:41.879424,15.30225360,.00011739,53.1585,192.9868,80.7642,279.3492,0,U,62437,999,8445,.10346859E-2,.30435E-3,0
STARLINK-32721,2024-251G,2026-06-25T06:00:02.000160,15.34367290,.000134,53.1582,195.4290,99.4933,134.9914,0,U,62438,999,581,-.74045381E-4,-.2874E-4,0
STARLINK-32709,2024-251H,2026-06-25T06:38:48.444576,15.34404785,.00010885,53.1572,195.3528,88.2381,271.8746,0,U,62439,999,8442,.97909085E-3,.32854E-3,0
STARLINK-32689,2024-251J,2026-06-25T06:19:40.443456,15.33470097,.00014786,53.1590,195.2664,60.6556,299.4594,0,U,62440,999,8442,.44501968E-2,.148544E-2,0
STARLINK-32724,2024-251K,2026-06-25T06:14:33.796032,15.34417430,.0001242,53.1588,195.2475,58.2939,301.8184,0,U,62441,999,8426,.8337169E-3,.27913E-3,0
STARLINK-32291,2024-251L,2026-06-25T05:32:14.594208,15.30215257,.00010463,53.1584,195.7694,92.2919,267.8201,0,U,62442,999,8410,.50074815E-3,.14508E-3,0
STARLINK-32736,2024-251M,2026-06-25T05:42:54.640224,15.30207773,.00007349,53.1574,195.8192,51.7901,308.3166,0,U,62443,999,8425,.58955725E-3,.17146E-3,0
STARLINK-32737,2024-251N,2026-06-25T06:43:09.914304,15.33308758,.00009889,53.1574,193.2384,65.4265,294.6840,0,U,62444,999,8445,.70869133E-2,.238442E-2,0
STARLINK-32683,2024-251P,2026-06-25T06:17:35.788992,15.34408811,.00011125,53.1576,195.2547,74.1184,285.9941,0,U,62445,999,8442,.71310927E-3,.23801E-3,0
STARLINK-32726,2024-251Q,2026-06-25T06:23:39.392160,15.34421977,.00014461,53.1586,195.2817,125.8102,234.3035,0,U,62446,999,8411,.10810775E-2,.36353E-3,0
STARLINK-32719,2024-251S,2026-06-25T05:47:24.086400,15.34409434,.00013246,53.1597,195.6917,93.4605,266.6549,0,U,62448,999,8424,.98367083E-3,.33015E-3,0
STARLINK-32723,2024-251T,2026-06-25T06:05:28.870368,15.34426677,.00011602,53.1593,195.2071,72.7427,287.3702,0,U,62449,999,8426,.118293E-2,.39837E-3,0
STARLINK-32722,2024-251U,2026-06-25T05:08:03.650496,15.34393171,.00014762,53.1583,195.6629,86.8679,273.2493,0,U,62450,999,8404,.13644075E-2,.45996E-3,0
STARLINK-32720,2024-251V,2026-06-25T04:52:53.429952,15.34429128,.00009848,53.1576,195.6027,79.7007,280.4107,0,U,62451,999,8404,.98895265E-3,.33216E-3,0
STARLINK-32656,2024-251W,2026-06-25T04:55:55.070400,15.34424455,.00011578,53.1574,195.6125,84.8585,275.2550,0,U,62452,999,8425,.99339206E-3,.33363E-3,0
STARLINK-32690,2024-251X,2026-06-25T06:43:05.059488,15.31447108,.0003021,53.1570,195.3655,152.6624,207.4537,0,U,62453,999,8404,.26086504E-1,.874193E-2,0
ASTRANIS UTILITYSAT,2024-252A,2026-06-23T01:33:54.031680,1.00283146,.75332126,9.1283,327.1819,254.1833,18.7793,0,U,62454,999,548,0,-.242E-5,0
NUVIEW ALPHA,2024-252B,2026-06-24T08:49:41.361312,1.00270061,.0001427,0.0534,34.2511,41.0245,246.5697,0,U,62455,999,389,0,-.207E-5,0
AGILA,2024-252C,2026-06-24T09:56:48.529248,1.00271371,.0001526,0.0652,122.4429,345.1641,106.3124,0,U,62456,999,523,0,-.174E-5,0
NUVIEW BRAVO,2024-252D,2026-06-24T08:49:41.361312,1.00272657,.00023518,0.0745,147.1599,339.1991,195.4733,0,U,62457,999,386,0,-.207E-5,0
SDX01,2024-253A,2026-06-25T06:24:51.447168,15.71262507,.00012768,54.9930,309.7062,320.2866,39.8082,0,U,62459,999,8380,.90214175E-3,.117451E-2,0
SDX02,2024-253B,2026-06-25T06:25:00.844032,15.71213466,.00012103,54.9935,309.7091,314.6582,45.4361,0,U,62460,999,8379,.8993496E-3,.116835E-2,0
