[{"id":"62428","name":"STARLINK-32614","tle1":"1 62428U 24249V   26174.16866771  .00016337  00000+0  60162-3 0  9992","tle2":"2 62428  43.0002  86.3081 0001443 277.1981  82.8707 15.27594368 83852"},{"id":"62429","name":"STARLINK-32418","tle1":"1 62429U 24249W   26175.39641403  .00023200  00000+0  85007-3 0  9994","tle2":"2 62429  42.9984  71.3908 0004052 280.6464  79.3932 15.27570004 84130"},{"id":"62430","name":"RESURS-P 5","tle1":"1 62430U 24250A   26176.26750847  .00002950  00000+0  97587-4 0  9994","tle2":"2 62430  97.2785 101.4626 0002206 123.9277 236.2175 15.32126876 83789"},{"id":"62432","name":"STARLINK-32702","tle1":"1 62432U 24251A   26176.23008405  .00018043  00000+0  61965-3 0  9990","tle2":"2 62432  53.1565 192.9289 0000785  77.1075 283.0013 15.30209918 84457"},{"id":"62433","name":"STARLINK-32712","tle1":"1 62433U 24251B   26176.24339060  .00018356  00000+0  63048-3 0  9997","tle2":"2 62433  53.1595 195.8481 0001167  94.2087 265.9047 15.30193541 84411"},{"id":"62434","name":"STARLINK-32674","tle1":"1 62434U 24251C   26176.25002315 -.00010042  00000+0 -28652-3 0  9997","tle2":"2 62434  53.1599 195.2751 0001129  91.7998 224.1320 15.34394531  5792"},{"id":"62435","name":"STARLINK-32711","tle1":"1 62435U 24251D   26176.24022282  .00021667  00000+0  74174-3 0  9995","tle2":"2 62435  53.1581 195.8293 0001339  94.2614 265.8540 15.30191378 84419"},{"id":"62436","name":"STARLINK-32697","tle1":"1 62436U 24251E   26176.29287118  .00026800  00000+0  91405-3 0  9992","tle2":"2 62436  53.1563 195.4509 0001003  95.4213 264.6902 15.30188516 84422"},{"id":"62437","name":"STARLINK-32693","tle1":"1 62437U 24251F   26176.25117916  .00030435  00000+0  10347-2 0  9991","tle2":"2 62437  53.1585 192.9868 0001173  80.7642 279.3492 15.30225360 84457"},{"id":"62438","name":"STARLINK-32721","tle1":"1 62438U 24251G   26176.25002315 -.00002874  00000+0 -74045-4 0  9993","tle2":"2 62438  53.1582 195.4290 0001340  99.4933 134.9914 15.34367290  5819"},{"id":"62439","name":"STARLINK-32709","tle1":"1 62439U 24251H   26176.27694959  .00032854  00000+0  97909-3 0  9999","tle2":"2 62439  53.1572 195.3528 0001088  88.2381 271.8746 15.34404785 84423"},{"id":"62440","name":"STARLINK-32689","tle1":"1 62440U 24251J   26176.26366254  .00148544  00000+0  44502-2 0  9998","tle2":"2 62440  53.1590 195.2664 0001478  60.6556 299.4594 15.33470097 84421"},{"id":"62441","name":"STARLINK-32724","tle1":"1 62441U 24251K   26176.26011338  .00027913  00000+0  83372-3 0  9994","tle2":"2 62441  53.1588 195.2475 0001242  58.2939 301.8184 15.34417430 84264"},{"id":"62442","name":"STARLINK-32291","tle1":"1 62442U 24251L   26176.23072447  .00014508  00000+0  50075-3 0  9990","tle2":"2 62442  53.1584 195.7694 0001046  92.2919 267.8201 15.30215257 84100"},{"id":"62443","name":"STARLINK-32736","tle1":"1 62443U 24251M   26176.23813241  .00017146  00000+0  58956-3 0  9993","tle2":"2 62443  53.1574 195.8192 0000734  51.7901 308.3166 15.30207773 84259"},{"id":"62444","name":"STARLINK-32737","tle1":"1 62444U 24251N   26176.27997586  .00238442  00000+0  70869-2 0  9993","tle2":"2 62444  53.1574 193.2384 0000988  65.4265 294.6840 15.33308758 84457"},{"id":"62445","name":"STARLINK-32683","tle1":"1 62445U 24251P   26176.26221978  .00023801  00000+0  71311-3 0  9993","tle2":"2 62445  53.1576 195.2547 0001112  74.1184 285.9941 15.34408811 84424"},{"id":"62446","name":"STARLINK-32726","tle1":"1 62446U 24251Q   26176.26642815  .00036353  00000+0  10811-2 0  9994","tle2":"2 62446  53.1586 195.2817 0001446 125.8102 234.3035 15.34421977 84116"},{"id":"62448","name":"STARLINK-32719","tle1":"1 62448U 24251S   26176.24125100  .00033015  00000+0  98367-3 0  9992","tle2":"2 62448  53.1597 195.6917 0001324  93.4605 266.6549 15.34409434 84244"},{"id":"62449","name":"STARLINK-32723","tle1":"1 62449U 24251T   26176.25380637  .00039837  00000+0  11829-2 0  9997","tle2":"2 62449  53.1593 195.2071 0001160  72.7427 287.3702 15.34426677 84269"},{"id":"62450","name":"STARLINK-32722","tle1":"1 62450U 24251U   26176.21393114  .00045996  00000+0  13644-2 0  9999","tle2":"2 62450  53.1583 195.6629 0001476  86.8679 273.2493 15.34393171 84047"},{"id":"62451","name":"STARLINK-32720","tle1":"1 62451U 24251V   26176.20339618  .00033216  00000+0  98895-3 0  9992","tle2":"2 62451  53.1576 195.6027 0000984  79.7007 280.4107 15.34429128 84045"},{"id":"62452","name":"STARLINK-32656","tle1":"1 62452U 24251W   26176.20549850  .00033363  00000+0  99339-3 0  9991","tle2":"2 62452  53.1574 195.6125 0001157  84.8585 275.2550 15.34424455 84259"},{"id":"62453","name":"STARLINK-32690","tle1":"1 62453U 24251X   26176.27991967  .00874193  00000+0  26087-1 0  9991","tle2":"2 62453  53.1570 195.3655 0003021 152.6624 207.4537 15.31447108 84047"},{"id":"62454","name":"ASTRANIS UTILITYSAT","tle1":"1 62454U 24252A   26174.06520870 -.00000242  00000+0  00000+0 0  9991","tle2":"2 62454   9.1283 327.1819 7533212 254.1833  18.7793  1.00283146  5483"},{"id":"62455","name":"NUVIEW ALPHA","tle1":"1 62455U 24252B   26175.36783983 -.00000207  00000+0  00000+0 0  9993","tle2":"2 62455   0.0534  34.2511 0001427  41.0245 246.5697  1.00270061  3898"},{"id":"62456","name":"AGILA","tle1":"1 62456U 24252C   26175.41445057 -.00000174  00000+0  00000+0 0  9990","tle2":"2 62456   0.0652 122.4429 0001526 345.1641 106.3124  1.00271371  5239"},{"id":"62457","name":"NUVIEW BRAVO","tle1":"1 62457U 24252D   26175.36783983 -.00000207  00000+0  00000+0 0  9995","tle2":"2 62457   0.0745 147.1599 0002351 339.1991 195.4733  1.00272657  3863"},{"id":"62459","name":"SDX01","tle1":"1 62459U 24253A   26176.26726212  .00117451  00000+0  90214-3 0  9999","tle2":"2 62459  54.9930 309.7062 0001276 320.2866  39.8082 15.71262507 83803"},{"id":"62460","name":"SDX02","tle1":"1 62460U 24253B   26176.26737088  .00116835  00000+0  89935-3 0  9997","tle2":"2 62460  54.9935 309.7091 0001210 314.6582  45.4361 15.71213466 83793"}]